REAL                    
1 64875U 25154G   26068.72233414  .00022901  00000+0  82904-3 0  9994
2 64875  97.4133 137.2581 0001853 118.5876 241.5550 15.28408058 34830
STARLINK-36466          
1 67358U 26003AA  26068.47097826  .00026501  00000+0  96968-3 0  9999
2 67358  43.0005 228.0147 0001338 282.9558  77.1145 15.27560079  8792
